,countryCode,ownershipTypeCode,latitude,longitude,city,countrySubdivisionCode,postalCode,currentTimeOffset,windowsTimeZoneId,olsonTimeZoneId
3739,US,CO,39.65278,-104.928197,Denver,CO,80222,-360,Mountain Standard Time,GMT-07:00 America/Denver
3740,US,CO,39.653634,-104.915687,Denver,CO,80222,-360,Mountain Standard Time,GMT-07:00 America/Denver
3741,US,LS,39.651856,-104.914206,Denver,CO,80222,-360,Mountain Standard Time,GMT-07:00 America/Denver
3742,US,LS,39.666547,-104.937194,Denver,CO,80222,-360,Mountain Standard Time,GMT-07:00 America/Denver
3743,US,CO,39.66756,-104.93913,Denver,CO,80210,-360,Mountain Standard Time,GMT-07:00 America/Denver
3744,US,LS,39.666502,-104.914438,Denver,CO,80222,-360,Mountain Standard Time,GMT-07:00 America/Denver
3745,US,LS,39.670842,-104.939029,Denver,CO,80222,-360,Mountain Standard Time,GMT-07:00 America/Denver
3746,US,LS,39.654477,-104.900136,Denver,CO,80231,-360,Mountain Standard Time,GMT-07:00 America/Denver
3747,US,LS,39.65374,-104.960506,Englewood,CO,80113,-360,Mountain Standard Time,GMT-07:00 America/Denver
3748,US,CO,39.676393,-104.913239,Denver,CO,80222,-360,Mountain Standard Time,GMT-07:00 America/Denver
3749,US,CO,39.679921,-104.958888,Denver,CO,80210,-360,Mountain Standard Time,GMT-07:00 America/Denver
3750,US,LS,39.687131,-104.942187,Denver,CO,80220,-360,Mountain Standard Time,GMT-07:00 America/Denver
3751,US,LS,39.678712,-104.963874,Denver,CO,80210,-360,Mountain Standard Time,GMT-07:00 America/Denver
3752,US,CO,39.623192,-104.897204,Greenwood Village,CO,80111,-360,Mountain Standard Time,GMT-07:00 America/Denver
3753,US,LS,39.677569,-104.972336,Denver,CO,80210,-360,Mountain Standard Time,GMT-07:00 America/Denver
3754,US,CO,39.653424,-104.872926,Denver,CO,80231,-360,Mountain Standard Time,GMT-07:00 America/Denver
3755,US,CO,39.694355,-104.941008,Denver,CO,80246,-360,Mountain Standard Time,GMT-07:00 America/Denver
3756,US,LS,39.626399,-104.88448,Greenwood Village,CO,80111,-360,Mountain Standard Time,GMT-07:00 America/Denver
3757,US,LS,39.651821,-104.984309,Englewood,CO,80113,-360,Mountain Standard Time,GMT-07:00 America/Denver
3758,US,CO,39.625723,-104.883456,Greenwood Village,CO,80111,-360,Mountain Standard Time,GMT-07:00 America/Denver
3759,US,LS,39.607829,-104.920775,Greenwood Village,CO,80111,-360,Mountain Standard Time,GMT-07:00 America/Denver
3760,US,CO,39.664268,-104.987222,Englewood,CO,80113,-360,Mountain Standard Time,GMT-07:00 America/Denver
3761,US,LS,39.655824,-104.989079,Englewood,CO,80110,-360,Mountain Standard Time,GMT-07:00 America/Denver
3762,US,CO,39.638845,-104.987443,Englewood,CO,80113,-360,Mountain Standard Time,GMT-07:00 America/Denver
3763,US,CO,39.608801,-104.957378,Littleton,CO,80121,-360,Mountain Standard Time,GMT-07:00 America/Denver
3764,US,CO,39.674371,-104.869637,Aurora,CO,80231,-360,Mountain Standard Time,GMT-07:00 America/Denver
3765,US,CO,39.610055,-104.889406,Greenwood Village,CO,80111,-360,Mountain Standard Time,GMT-07:00 America/Denver
3766,US,CO,39.707073,-104.920511,Denver,CO,80224,-360,Mountain Standard Time,GMT-07:00 America/Denver
3767,US,LS,39.70797,-104.932972,Glendale,CO,80246,-360,Mountain Standard Time,GMT-07:00 America/Denver
3768,US,LS,39.708396,-104.937019,Glendale,CO,80246,-360,Mountain Standard Time,GMT-07:00 America/Denver
3769,US,CO,39.70897,-104.940068,Glendale,CO,80246,-360,Mountain Standard Time,GMT-07:00 America/Denver
3770,US,LS,39.686147,-104.868048,Aurora,CO,80012,-360,Mountain Standard Time,GMT-07:00 America/Denver
3771,US,LS,39.602298,-104.89172,Greenwood Village,CO,80111,-360,Mountain Standard Time,GMT-07:00 America/Denver
3772,US,CO,39.593968,-104.928586,Centennial,CO,80122,-360,Mountain Standard Time,GMT-07:00 America/Denver
3773,US,LS,39.596035,-104.903476,Englewood,CO,80112,-360,Mountain Standard Time,GMT-07:00 America/Denver
3774,US,CO,39.659983,-104.850223,Aurora,CO,80014,-360,Mountain Standard Time,GMT-07:00 America/Denver
3775,US,CO,39.691713,-104.865309,Aurora,CO,80012,-360,Mountain Standard Time,GMT-07:00 America/Denver
3776,US,LS,39.653072,-105.009069,Sheridan,CO,80110,-360,Mountain Standard Time,GMT-07:00 America/Denver
3777,US,LS,39.612291,-104.989622,Littleton,CO,80120,-360,Mountain Standard Time,GMT-07:00 America/Denver
3778,US,LS,39.690988,-104.863476,Aurora,CO,80012,-360,Mountain Standard Time,GMT-07:00 America/Denver
3779,US,CO,39.693731,-104.99274,Denver,CO,80223,-360,Mountain Standard Time,GMT-07:00 America/Denver
3780,US,CO,39.652805,-105.012951,Sheridan,CO,80110,-360,Mountain Standard Time,GMT-07:00 America/Denver
3781,US,LS,39.659402,-104.84373,Aurora,CO,80014,-360,Mountain Standard Time,GMT-07:00 America/Denver
3782,US,CO,39.711244,-104.972985,Denver,CO,80209,-360,Mountain Standard Time,GMT-07:00 America/Denver
3783,US,CO,39.595607,-104.88034,Greenwood Village,CO,80112,-360,Mountain Standard Time,GMT-07:00 America/Denver
3784,US,LS,39.593246,-104.881849,Englewood,CO,80112,-360,Mountain Standard Time,GMT-07:00 America/Denver
3785,US,CO,39.719538,-104.953198,Denver,CO,80206,-360,Mountain Standard Time,GMT-07:00 America/Denver
3786,US,CO,39.720624,-104.903199,Denver,CO,80230,-360,Mountain Standard Time,GMT-07:00 America/Denver
3787,US,LS,39.720661,-104.901171,Denver,CO,80230,-360,Mountain Standard Time,GMT-07:00 America/Denver
3788,US,CO,39.707379,-104.987376,Denver,CO,80209,-360,Mountain Standard Time,GMT-07:00 America/Denver
3789,US,CO,39.59539,-104.85338,Centennial,CO,80112,-360,Mountain Standard Time,GMT-07:00 America/Denver
3790,US,CO,39.566389,-104.906929,Centennial,CO,80112,-360,Mountain Standard Time,GMT-07:00 America/Denver
3791,US,CO,39.562645,-104.876025,Littleton,CO,80124,-360,Mountain Standard Time,GMT-07:00 America/Denver
3792,US,LS,39.567369,-104.920949,Littleton,CO,80122,-360,Mountain Standard Time,GMT-07:00 America/Denver
3793,US,LS,39.558905,-104.907478,Highlands Ranch,CO,80126,-360,Mountain Standard Time,GMT-07:00 America/Denver
3794,US,CO,39.637869,-104.828549,Aurora,CO,80015,-360,Mountain Standard Time,GMT-07:00 America/Denver
3795,US,CO,39.554603,-104.883978,Lone Tree,CO,80124,-360,Mountain Standard Time,GMT-07:00 America/Denver
3796,US,CO,39.580316,-104.96188,Centennial,CO,80122,-360,Mountain Standard Time,GMT-07:00 America/Denver
3797,US,LS,39.578504,-104.961283,Centennial,CO,80122,-360,Mountain Standard Time,GMT-07:00 America/Denver
3798,US,CO,39.595318,-104.804334,Centennial,CO,80016,-360,Mountain Standard Time,GMT-07:00 America/Denver
3799,US,LS,39.600226,-104.802907,Aurora,CO,80016,-360,Mountain Standard Time,GMT-07:00 America/Denver
3800,US,LS,39.591379,-104.805072,Aurora,CO,80016,-360,Mountain Standard Time,GMT-07:00 America/Denver
3801,US,LS,39.537585,-104.883345,Lone Tree,CO,80124,-360,Mountain Standard Time,GMT-07:00 America/Denver
3802,US,LS,39.565233,-104.96562,Highlands Ranch,CO,80126,-360,Mountain Standard Time,GMT-07:00 America/Denver
3803,US,CO,39.535316,-104.880241,Lone Tree,CO,80124,-360,Mountain Standard Time,GMT-07:00 America/Denver
3804,US,LS,39.53498,-104.883955,Lone Tree,CO,80124,-360,Mountain Standard Time,GMT-07:00 America/Denver
3805,US,CO,39.543938,-104.942181,Highlands Ranch,CO,80126,-360,Mountain Standard Time,GMT-07:00 America/Denver
3806,US,CO,39.536711,-104.856139,Englewood,CO,80112,-360,Mountain Standard Time,GMT-07:00 America/Denver
3807,US,CO,39.625209,-104.790089,Centennial,CO,80015,-360,Mountain Standard Time,GMT-07:00 America/Denver
3808,US,LS,39.542469,-104.94462,Highlands Ranch,CO,80126,-360,Mountain Standard Time,GMT-07:00 America/Denver
3809,US,CO,39.584111,-104.987857,Littleton,CO,80122,-360,Mountain Standard Time,GMT-07:00 America/Denver
3810,US,LS,39.529175,-104.871426,Lone Tree,CO,80124,-360,Mountain Standard Time,GMT-07:00 America/Denver
3811,US,CO,39.776404,-105.024715,Denver,CO,80211,-360,Mountain Standard Time,GMT-07:00 America/Denver
3812,US,LS,39.77606,-105.036935,Denver,CO,80211,-360,Mountain Standard Time,GMT-07:00 America/Denver
3813,US,CO,39.791277,-105.024866,Denver,CO,80221,-360,Mountain Standard Time,GMT-07:00 America/Denver
3814,US,CO,39.769199,-105.045796,Denver,CO,80212,-360,Mountain Standard Time,GMT-07:00 America/Denver
3815,US,LS,39.755586,-105.024273,Denver,CO,80211,-360,Mountain Standard Time,GMT-07:00 America/Denver
3816,US,LS,39.770299,-105.054177,Wheat Ridge,CO,80212,-360,Mountain Standard Time,GMT-07:00 America/Denver
3817,US,CO,39.754915,-105.009108,Denver,CO,80202,-360,Mountain Standard Time,GMT-07:00 America/Denver
3818,US,CO,39.765476,-104.994549,Denver,CO,80216,-360,Mountain Standard Time,GMT-07:00 America/Denver
3819,US,LS,39.757338,-104.998693,Denver,CO,80202,-360,Mountain Standard Time,GMT-07:00 America/Denver
3820,US,CO,39.753208,-105.002913,Denver,CO,80202,-360,Mountain Standard Time,GMT-07:00 America/Denver
3821,US,LS,39.754815,-104.995957,Denver,CO,80211,-360,Mountain Standard Time,GMT-07:00 America/Denver
3822,US,CO,39.750301,-105.053615,Edgewater,CO,80214,-360,Mountain Standard Time,GMT-07:00 America/Denver
3823,US,LS,39.745265,-105.005904,Denver,CO,80204,-360,Mountain Standard Time,GMT-07:00 America/Denver
3824,US,CO,39.747441,-104.999457,Denver,CO,80202,-360,Mountain Standard Time,GMT-07:00 America/Denver
3825,US,CO,39.749442,-104.994998,Denver,CO,80202,-360,Mountain Standard Time,GMT-07:00 America/Denver
3826,US,LS,39.745883,-104.997631,Denver,CO,80202,-360,Mountain Standard Time,GMT-07:00 America/Denver
3827,US,CO,39.746923,-104.99481,Denver,CO,80202,-360,Mountain Standard Time,GMT-07:00 America/Denver
3828,US,CO,39.748909,-104.991542,Denver,CO,80202,-360,Mountain Standard Time,GMT-07:00 America/Denver
3829,US,LS,39.740547,-105.041926,Denver,CO,80204,-360,Mountain Standard Time,GMT-07:00 America/Denver
3830,US,LS,39.746364,-105.055505,Edgewater,CO,80214,-360,Mountain Standard Time,GMT-07:00 America/Denver
3831,US,LS,39.747358,-104.990458,Denver,CO,80202,-360,Mountain Standard Time,GMT-07:00 America/Denver
3832,US,LS,39.744832,-105.055722,Edgewater,CO,80214,-360,Mountain Standard Time,GMT-07:00 America/Denver
3833,US,CO,39.745192,-104.992455,Denver,CO,80202,-360,Mountain Standard Time,GMT-07:00 America/Denver
3834,US,LS,39.811104,-105.05188,Arvada,CO,80003,-360,Mountain Standard Time,GMT-07:00 America/Denver
3835,US,LS,39.771135,-105.080003,Wheat Ridge,CO,80033,-360,Mountain Standard Time,GMT-07:00 America/Denver
3836,US,CO,39.742964,-104.989053,Denver,CO,80202,-360,Mountain Standard Time,GMT-07:00 America/Denver
3837,US,CO,39.738712,-104.996855,Denver,CO,80204,-360,Mountain Standard Time,GMT-07:00 America/Denver
3838,US,LS,39.743928,-104.986929,Denver,CO,80290,-360,Mountain Standard Time,GMT-07:00 America/Denver
3839,US,LS,39.737525,-104.998335,Denver,CO,80204,-360,Mountain Standard Time,GMT-07:00 America/Denver
3840,US,CO,39.743004,-104.987088,Denver,CO,80202,-360,Mountain Standard Time,GMT-07:00 America/Denver
3841,US,LS,39.74765,-104.977417,Denver,CO,80205,-360,Mountain Standard Time,GMT-07:00 America/Denver
3842,US,CO,39.797173,-105.078703,Arvada,CO,80002,-360,Mountain Standard Time,GMT-07:00 America/Denver
3843,US,CO,39.829978,-105.024633,Westminster,CO,80030,-360,Mountain Standard Time,GMT-07:00 America/Denver
3844,US,CO,39.828746,-105.053841,Westminster,CO,80003,-360,Mountain Standard Time,GMT-07:00 America/Denver
3845,US,CO,39.725397,-104.986468,Denver,CO,80203,-360,Mountain Standard Time,GMT-07:00 America/Denver
3846,US,CO,39.816815,-105.080949,Arvada,CO,80003,-360,Mountain Standard Time,GMT-07:00 America/Denver
3847,US,LS,39.730942,-104.973449,Denver,CO,80218,-360,Mountain Standard Time,GMT-07:00 America/Denver
3848,US,CO,39.732382,-105.081942,Lakewood,CO,80214,-360,Mountain Standard Time,GMT-07:00 America/Denver
3849,US,LS,39.725215,-104.973451,Denver,CO,80218,-360,Mountain Standard Time,GMT-07:00 America/Denver
3850,US,CO,39.773415,-104.940171,Denver,CO,80216,-360,Mountain Standard Time,GMT-07:00 America/Denver
3851,US,CO,39.710928,-105.022519,Denver,CO,80219,-360,Mountain Standard Time,GMT-07:00 America/Denver
3852,US,CO,39.740533,-104.952757,Denver,CO,80206,-360,Mountain Standard Time,GMT-07:00 America/Denver
3853,US,CO,39.768944,-105.110004,Wheat Ridge,CO,80033,-360,Mountain Standard Time,GMT-07:00 America/Denver
3854,US,CO,39.786864,-105.110107,Wheat Ridge,CO,80033,-360,Mountain Standard Time,GMT-07:00 America/Denver
3855,US,LS,39.739292,-105.098861,Lakewood,CO,80215,-360,Mountain Standard Time,GMT-07:00 America/Denver
3856,US,LS,39.788212,-105.112434,Wheat Ridge,CO,80033,-360,Mountain Standard Time,GMT-07:00 America/Denver
3857,US,CO,39.802175,-105.10935,Arvada,CO,80002,-360,Mountain Standard Time,GMT-07:00 America/Denver
3858,US,LS,39.710427,-104.988538,Denver,CO,80209,-360,Mountain Standard Time,GMT-07:00 America/Denver
3859,US,CO,39.716415,-105.080992,Lakewood,CO,80226,-360,Mountain Standard Time,GMT-07:00 America/Denver
3860,US,LS,40.1404,-105.1308,Longmont,CO,80501,-360,Mountain Standard Time,GMT-07:00 America/Denver
3861,US,CO,40.147298,-105.131426,Longmont,CO,80501,-360,Mountain Standard Time,GMT-07:00 America/Denver
3862,US,LS,40.150616,-105.133686,Longmont,CO,80501,-360,Mountain Standard Time,GMT-07:00 America/Denver
3863,US,LS,40.153475,-105.109701,Longmont,CO,80501,-360,Mountain Standard Time,GMT-07:00 America/Denver
3864,US,CO,40.152818,-105.106706,Longmont,CO,80501,-360,Mountain Standard Time,GMT-07:00 America/Denver
3865,US,LS,40.1879,-105.129745,Longmont,CO,80501,-360,Mountain Standard Time,GMT-07:00 America/Denver
3866,US,CO,40.188931,-105.129995,Longmont,CO,80501,-360,Mountain Standard Time,GMT-07:00 America/Denver
3867,US,CO,40.190611,-105.102599,Longmont,CO,80501,-360,Mountain Standard Time,GMT-07:00 America/Denver
3868,US,LS,40.186489,-105.07558,Longmont,CO,80501,-360,Mountain Standard Time,GMT-07:00 America/Denver
3869,US,CO,40.188285,-105.076528,Longmont,CO,80504,-360,Mountain Standard Time,GMT-07:00 America/Denver
3870,US,LS,40.071899,-105.200955,Boulder,CO,80301,-360,Mountain Standard Time,GMT-07:00 America/Denver
3871,US,CO,40.16269,-104.977467,Firestone,CO,80504,-360,Mountain Standard Time,GMT-07:00 America/Denver
3872,US,CO,40.087062,-104.985486,Frederick,CO,80516,-360,Mountain Standard Time,GMT-07:00 America/Denver
3873,US,LS,40.016549,-105.100976,Erie,CO,80516,-360,Mountain Standard Time,GMT-07:00 America/Denver
3874,US,CO,40.015787,-105.102386,Erie,CO,80516,-360,Mountain Standard Time,GMT-07:00 America/Denver
3875,US,CO,40.0042,-105.103485,Lafayette,CO,80026,-360,Mountain Standard Time,GMT-07:00 America/Denver
3876,US,LS,40.001634,-105.101773,Lafayette,CO,80026,-360,Mountain Standard Time,GMT-07:00 America/Denver
3877,US,LS,40.035269,-105.259768,Boulder,CO,80301,-360,Mountain Standard Time,GMT-07:00 America/Denver
3878,US,LS,40.11899,-104.940184,Firestone,CO,80520,-360,Mountain Standard Time,GMT-07:00 America/Denver
3879,US,LS,40.159271,-104.939446,Longmont,CO,80504,-360,Mountain Standard Time,GMT-07:00 America/Denver
3880,US,LS,39.988204,-105.123964,Louisville,CO,80027,-360,Mountain Standard Time,GMT-07:00 America/Denver
3881,US,LS,40.021884,-105.256527,Boulder,CO,80301,-360,Mountain Standard Time,GMT-07:00 America/Denver
3882,US,CO,40.021985,-105.258972,Boulder,CO,80302,-360,Mountain Standard Time,GMT-07:00 America/Denver
3883,US,CO,39.987374,-105.096879,Lafayette,CO,80026,-360,Mountain Standard Time,GMT-07:00 America/Denver
3884,US,CO,40.01494,-105.252665,Boulder,CO,80303,-360,Mountain Standard Time,GMT-07:00 America/Denver
3885,US,LS,40.013312,-105.25955,Boulder,CO,80302,-360,Mountain Standard Time,GMT-07:00 America/Denver
3886,US,LS,39.998437,-105.234242,Boulder,CO,80303,-360,Mountain Standard Time,GMT-07:00 America/Denver
3887,US,LS,40.00197,-105.010114,Broomfield,CO,80516,-360,Mountain Standard Time,GMT-07:00 America/Denver
3888,US,CO,40.000585,-105.00634,Broomfield,CO,80023,-360,Mountain Standard Time,GMT-07:00 America/Denver
3889,US,LS,40.006646,-105.27181,Boulder,CO,80309,-360,Mountain Standard Time,GMT-07:00 America/Denver
3890,US,CO,40.007193,-105.275112,Boulder,CO,80302,-360,Mountain Standard Time,GMT-07:00 America/Denver
3891,US,CO,39.999904,-105.263122,Boulder,CO,80305,-360,Mountain Standard Time,GMT-07:00 America/Denver
3892,US,CO,39.965082,-105.164195,Louisville,CO,80027,-360,Mountain Standard Time,GMT-07:00 America/Denver
3893,US,CO,39.999619,-104.976923,Thornton,CO,80023,-360,Mountain Standard Time,GMT-07:00 America/Denver
3894,US,CO,39.955606,-105.165216,Superior,CO,80027,-360,Mountain Standard Time,GMT-07:00 America/Denver
3895,US,LS,39.956338,-105.173567,Superior,CO,80027,-360,Mountain Standard Time,GMT-07:00 America/Denver
3896,US,LS,39.956801,-105.035466,Broomfield,CO,80023,-360,Mountain Standard Time,GMT-07:00 America/Denver
3897,US,CO,39.940171,-105.127011,Broomfield,CO,80020,-360,Mountain Standard Time,GMT-07:00 America/Denver
3898,US,LS,39.958729,-104.99566,Westminster,CO,80023,-360,Mountain Standard Time,GMT-07:00 America/Denver
3899,US,CO,39.93358,-105.090131,Broomfield,CO,80020,-360,Mountain Standard Time,GMT-07:00 America/Denver
3900,US,CO,39.958803,-104.991375,Westminster,CO,80023,-360,Mountain Standard Time,GMT-07:00 America/Denver
3901,US,LS,39.930143,-105.148681,Superior,CO,80027,-360,Mountain Standard Time,GMT-07:00 America/Denver
3902,US,CO,39.928457,-105.147727,Superior,CO,80027,-360,Mountain Standard Time,GMT-07:00 America/Denver
3903,US,LS,39.944373,-105.014375,Broomfield,CO,80023,-360,Mountain Standard Time,GMT-07:00 America/Denver
3904,US,LS,39.956293,-104.981922,Thornton,CO,80023,-360,Mountain Standard Time,GMT-07:00 America/Denver
3905,US,CO,39.957828,-104.9778,Thornton,CO,80020,-360,Mountain Standard Time,GMT-07:00 America/Denver
3906,US,CO,39.922541,-105.091353,Broomfield,CO,80020,-360,Mountain Standard Time,GMT-07:00 America/Denver
3907,US,CO,39.94466,-104.992471,Westminster,CO,80023,-360,Mountain Standard Time,GMT-07:00 America/Denver
3908,US,LS,39.916853,-105.055524,Broomfield,CO,80020,-360,Mountain Standard Time,GMT-07:00 America/Denver
3909,US,CO,39.910762,-105.095786,Broomfield,CO,80021,-360,Mountain Standard Time,GMT-07:00 America/Denver
3910,US,CO,39.914442,-104.999551,Westminster,CO,80234,-360,Mountain Standard Time,GMT-07:00 America/Denver
3911,US,CO,39.944122,-104.940934,Thornton,CO,80602,-360,Mountain Standard Time,GMT-07:00 America/Denver
3912,US,CO,39.914507,-104.987777,Thornton,CO,80241,-360,Mountain Standard Time,GMT-07:00 America/Denver
3913,US,LS,39.916493,-104.974593,Thornton,CO,80233,-360,Mountain Standard Time,GMT-07:00 America/Denver
3914,US,LS,39.944585,-104.938137,Thornton,CO,80241,-360,Mountain Standard Time,GMT-07:00 America/Denver
3915,US,LS,39.912392,-104.981024,Northglenn,CO,80233,-360,Mountain Standard Time,GMT-07:00 America/Denver
3916,US,LS,39.914759,-104.943729,Thornton,CO,80241,-360,Mountain Standard Time,GMT-07:00 America/Denver
3917,US,CO,39.912382,-105.052391,Westminster,CO,80020,-360,Mountain Standard Time,GMT-07:00 America/Denver
3918,US,CO,39.890949,-104.97809,Northglenn,CO,80233,-360,Mountain Standard Time,GMT-07:00 America/Denver
3919,US,CO,39.913578,-104.92218,Thornton,CO,80233,-360,Mountain Standard Time,GMT-07:00 America/Denver
3920,US,CO,39.884774,-104.993717,Northglenn,CO,80234,-360,Mountain Standard Time,GMT-07:00 America/Denver
3921,US,LS,39.883778,-104.975969,Thornton,CO,80229,-360,Mountain Standard Time,GMT-07:00 America/Denver
3922,US,LS,39.883631,-105.022998,Federal Heights,CO,80260,-360,Mountain Standard Time,GMT-07:00 America/Denver
3923,US,CO,39.880785,-104.983974,Denver,CO,80229,-360,Mountain Standard Time,GMT-07:00 America/Denver
3924,US,LS,39.883128,-105.027634,Westminster,CO,80260,-360,Mountain Standard Time,GMT-07:00 America/Denver
3925,US,LS,39.883519,-104.942332,Thornton,CO,80233,-360,Mountain Standard Time,GMT-07:00 America/Denver
3926,US,LS,39.872415,-104.976021,Thornton,CO,80229,-360,Mountain Standard Time,GMT-07:00 America/Denver
3927,US,CO,39.871044,-104.979106,Thornton,CO,80229,-360,Mountain Standard Time,GMT-07:00 America/Denver
3928,US,CO,39.886725,-105.076412,Westminster,CO,80021,-360,Mountain Standard Time,GMT-07:00 America/Denver
3929,US,LS,39.886543,-105.078687,Westminster,CO,80021,-360,Mountain Standard Time,GMT-07:00 America/Denver
3930,US,CO,39.867422,-105.053913,Westminster,CO,80031,-360,Mountain Standard Time,GMT-07:00 America/Denver
3931,US,CO,39.849447,-104.978954,Thornton,CO,80229,-360,Mountain Standard Time,GMT-07:00 America/Denver
3932,US,CO,39.880013,-105.096768,Westminster,CO,80021,-360,Mountain Standard Time,GMT-07:00 America/Denver
3933,US,LS,39.876693,-105.098161,Westminster,CO,80021,-360,Mountain Standard Time,GMT-07:00 America/Denver
3934,US,CO,39.985631,-104.823129,Brighton,CO,80601,-360,Mountain Standard Time,GMT-07:00 America/Denver
3935,US,LS,39.970443,-104.816223,Brighton,CO,80601,-360,Mountain Standard Time,GMT-07:00 America/Denver
3936,US,LS,39.662347,-106.827828,Eagle,CO,81631,-360,Mountain Standard Time,GMT-07:00 America/Denver
3937,US,CO,39.642246,-106.590407,Edwards,CO,81632,-360,Mountain Standard Time,GMT-07:00 America/Denver
3938,US,LS,39.632775,-106.524649,Avon,CO,81620,-360,Mountain Standard Time,GMT-07:00 America/Denver
3939,US,CO,39.632345,-106.521172,Avon,CO,81620,-360,Mountain Standard Time,GMT-07:00 America/Denver
3940,US,LS,39.633798,-106.517497,Avon,CO,81620,-360,Mountain Standard Time,GMT-07:00 America/Denver
3941,US,LS,39.630959,-106.417967,Vail,CO,81657,-360,Mountain Standard Time,GMT-07:00 America/Denver
3942,US,LS,39.632097,-106.416305,Vail,CO,81657,-360,Mountain Standard Time,GMT-07:00 America/Denver
3943,US,LS,39.391607,-107.087611,El Jebel,CO,81623,-360,Mountain Standard Time,GMT-07:00 America/Denver
3944,US,CO,39.387648,-107.083119,Basalt,CO,81621,-360,Mountain Standard Time,GMT-07:00 America/Denver
3945,US,LS,39.64342,-106.38831,Vail,CO,81658,-360,Mountain Standard Time,GMT-07:00 America/Denver
3946,US,LS,39.643206,-106.381803,Vail,CO,81657,-360,Mountain Standard Time,GMT-07:00 America/Denver
3947,US,LS,39.476944,-107.28752,Glenwood Springs,CO,81601,-360,Mountain Standard Time,GMT-07:00 America/Denver
3948,US,LS,39.400367,-107.220396,Carbondale,CO,81623,-360,Mountain Standard Time,GMT-07:00 America/Denver
3949,US,LS,39.538693,-107.323102,Glenwood Springs,CO,81601,-360,Mountain Standard Time,GMT-07:00 America/Denver
3950,US,CO,39.530801,-107.325704,Glenwood Springs,CO,81601,-360,Mountain Standard Time,GMT-07:00 America/Denver
3951,US,LS,39.188229,-106.819869,Aspen,CO,81611,-360,Mountain Standard Time,GMT-07:00 America/Denver
3952,US,LS,39.500773,-106.153632,Frisco,CO,80443,-360,Mountain Standard Time,GMT-07:00 America/Denver
3953,US,LS,39.5752,-106.101906,Frisco,CO,80443,-360,Mountain Standard Time,GMT-07:00 America/Denver
3954,US,CO,39.590583,-106.095025,Frisco,CO,80443,-360,Mountain Standard Time,GMT-07:00 America/Denver
3955,US,LS,39.637836,-106.077821,Silverthorne,CO,80498,-360,Mountain Standard Time,GMT-07:00 America/Denver
3956,US,CO,39.631279,-106.070581,Silverthorne,CO,80498,-360,Mountain Standard Time,GMT-07:00 America/Denver
3957,US,LS,39.630252,-106.056141,Dillon,CO,80435,-360,Mountain Standard Time,GMT-07:00 America/Denver
3958,US,CO,39.479786,-106.046138,Breckenridge,CO,80424,-360,Mountain Standard Time,GMT-07:00 America/Denver
3959,US,LS,39.607616,-105.943827,Keystone,CO,80435,-360,Mountain Standard Time,GMT-07:00 America/Denver
3960,US,CO,39.884405,-104.772357,Commerce City,CO,80022,-360,Mountain Standard Time,GMT-07:00 America/Denver
3961,US,LS,39.887428,-104.811827,Commerce City,CO,80222,-360,Mountain Standard Time,GMT-07:00 America/Denver
3962,US,CO,39.88559,-104.844227,Commerce City,CO,80022,-360,Mountain Standard Time,GMT-07:00 America/Denver
3963,US,CO,39.817971,-104.772411,Denver,CO,80249,-360,Mountain Standard Time,GMT-07:00 America/Denver
3964,US,LS,39.956347,-104.780391,Brighton,CO,80601,-360,Mountain Standard Time,GMT-07:00 America/Denver
3965,US,LS,39.858785,-104.678012,Denver,CO,80249,-360,Mountain Standard Time,GMT-07:00 America/Denver
3966,US,LS,39.807033,-104.783008,Denver,CO,80019,-360,Mountain Standard Time,GMT-07:00 America/Denver
3967,US,LS,39.862931,-104.673417,Denver,CO,80249,-360,Mountain Standard Time,GMT-07:00 America/Denver
3968,US,LS,39.858089,-104.667529,Denver,CO,80249,-360,Mountain Standard Time,GMT-07:00 America/Denver
3969,US,CO,39.784173,-104.777173,Denver,CO,80249,-360,Mountain Standard Time,GMT-07:00 America/Denver
3970,US,CO,39.987405,-104.750747,Brighton,CO,80601,-360,Mountain Standard Time,GMT-07:00 America/Denver
3971,US,LS,39.988607,-104.750255,Brighton,CO,80601,-360,Mountain Standard Time,GMT-07:00 America/Denver
3972,US,CO,39.773306,-104.810731,Denver,CO,80239,-360,Mountain Standard Time,GMT-07:00 America/Denver
3973,US,CO,39.764161,-104.774612,Aurora,CO,80011,-360,Mountain Standard Time,GMT-07:00 America/Denver
3974,US,CO,39.778428,-104.847488,Denver,CO,80239,-360,Mountain Standard Time,GMT-07:00 America/Denver
3975,US,CO,39.785343,-104.895038,Denver,CO,80207,-360,Mountain Standard Time,GMT-07:00 America/Denver
3976,US,LS,39.783644,-104.895538,Denver,CO,80238,-360,Mountain Standard Time,GMT-07:00 America/Denver
3977,US,CO,39.773582,-104.882312,Denver,CO,80238,-360,Mountain Standard Time,GMT-07:00 America/Denver
3978,US,LS,39.759306,-104.866927,Denver,CO,80238,-360,Mountain Standard Time,GMT-07:00 America/Denver
3979,US,CO,39.805256,-104.932148,Commerce City,CO,80022,-360,Mountain Standard Time,GMT-07:00 America/Denver
3980,US,CO,39.740406,-104.814476,Aurora,CO,80011,-360,Mountain Standard Time,GMT-07:00 America/Denver
3981,US,CO,39.739916,-104.841062,Aurora,CO,80011,-360,Mountain Standard Time,GMT-07:00 America/Denver
3982,US,CO,39.757948,-104.902621,Denver,CO,80238,-360,Mountain Standard Time,GMT-07:00 America/Denver
3983,US,LS,39.756604,-104.901389,Denver,CO,80207,-360,Mountain Standard Time,GMT-07:00 America/Denver
3984,US,CO,39.747719,-104.885123,Denver,CO,80220,-360,Mountain Standard Time,GMT-07:00 America/Denver
3985,US,LS,39.715146,-104.821305,Aurora,CO,80012,-360,Mountain Standard Time,GMT-07:00 America/Denver
3986,US,CO,39.713125,-104.821703,Aurora,CO,80012,-360,Mountain Standard Time,GMT-07:00 America/Denver
3987,US,CO,39.740349,-104.91976,Denver,CO,80220,-360,Mountain Standard Time,GMT-07:00 America/Denver
3988,US,LS,40.079099,-104.802889,Fort Lupton,CO,80621,-360,Mountain Standard Time,GMT-07:00 America/Denver
3989,US,LS,39.559741,-104.782769,Parker,CO,80134,-360,Mountain Standard Time,GMT-07:00 America/Denver
3990,US,LS,39.614994,-104.758485,Centennial,CO,80015,-360,Mountain Standard Time,GMT-07:00 America/Denver
3991,US,CO,39.614994,-104.75729,Aurora,CO,80015,-360,Mountain Standard Time,GMT-07:00 America/Denver
3992,US,CO,39.54698,-104.792839,Parker,CO,80134,-360,Mountain Standard Time,GMT-07:00 America/Denver
3993,US,LS,39.535688,-104.79059,Parker,CO,80134,-360,Mountain Standard Time,GMT-07:00 America/Denver
3994,US,CO,39.538608,-104.768414,Parker,CO,80138,-360,Mountain Standard Time,GMT-07:00 America/Denver
3995,US,CO,39.579972,-104.724438,Aurora,CO,80016,-360,Mountain Standard Time,GMT-07:00 America/Denver
3996,US,LS,39.581216,-104.72198,Aurora,CO,80016,-360,Mountain Standard Time,GMT-07:00 America/Denver
3997,US,LS,39.652863,-104.776171,Aurora,CO,80013,-360,Mountain Standard Time,GMT-07:00 America/Denver
3998,US,CO,39.652239,-104.773079,Aurora,CO,80013,-360,Mountain Standard Time,GMT-07:00 America/Denver
3999,US,LS,39.655037,-104.776166,Aurora,CO,80013,-360,Mountain Standard Time,GMT-07:00 America/Denver
4000,US,LS,39.604604,-104.715171,Aurora,CO,80016,-360,Mountain Standard Time,GMT-07:00 America/Denver
4001,US,CO,39.638076,-104.732155,Aurora,CO,80015,-360,Mountain Standard Time,GMT-07:00 America/Denver
4002,US,LS,39.516282,-104.76633,Parker,CO,80134,-360,Mountain Standard Time,GMT-07:00 America/Denver
4003,US,LS,39.513301,-104.773124,Parker,CO,80134,-360,Mountain Standard Time,GMT-07:00 America/Denver
4004,US,CO,39.672774,-104.788435,Aurora,CO,80013,-360,Mountain Standard Time,GMT-07:00 America/Denver
4005,US,CO,39.512145,-104.766112,Parker,CO,80134,-360,Mountain Standard Time,GMT-07:00 America/Denver
4006,US,LS,39.587497,-104.687403,Aurora,CO,80016,-360,Mountain Standard Time,GMT-07:00 America/Denver
4007,US,CO,39.494298,-104.759856,Parker,CO,80134,-360,Mountain Standard Time,GMT-07:00 America/Denver
4008,US,LS,38.536032,-105.994536,Salida,CO,81201,-360,Mountain Standard Time,GMT-07:00 America/Denver
4009,US,CO,38.444784,-105.229724,Canon City,CO,81212,-360,Mountain Standard Time,GMT-07:00 America/Denver
4010,US,LS,38.448511,-105.223945,Canon City,CO,81212,-360,Mountain Standard Time,GMT-07:00 America/Denver
4011,US,LS,39.843264,-105.08076,Arvada,CO,80003,-360,Mountain Standard Time,GMT-07:00 America/Denver
4012,US,LS,39.843397,-105.083581,Arvada,CO,80003,-360,Mountain Standard Time,GMT-07:00 America/Denver
4013,US,LS,39.737529,-104.917455,Denver,CO,80220,-360,Mountain Standard Time,GMT-07:00 America/Denver
4014,US,LS,39.737532,-104.915592,Denver,CO,80220,-360,Mountain Standard Time,GMT-07:00 America/Denver
4015,US,CO,39.729279,-104.94098,Denver,CO,80206,-360,Mountain Standard Time,GMT-07:00 America/Denver
4016,US,CO,39.720859,-104.956887,Denver,CO,80206,-360,Mountain Standard Time,GMT-07:00 America/Denver
4017,US,LS,39.764491,-105.140158,Wheat Ridge,CO,80033,-360,Mountain Standard Time,GMT-07:00 America/Denver
4018,US,CO,39.762168,-105.142073,Wheat Ridge,CO,80033,-360,Mountain Standard Time,GMT-07:00 America/Denver
4019,US,LS,39.810849,-105.172024,Arvada,CO,80007,-360,Mountain Standard Time,GMT-07:00 America/Denver
4020,US,LS,39.840113,-105.084964,Arvada,CO,80003,-360,Mountain Standard Time,GMT-07:00 America/Denver
4021,US,LS,39.73385,-105.16048,Lakewood,CO,80401,-360,Mountain Standard Time,GMT-07:00 America/Denver
4022,US,CO,39.713787,-105.132948,Lakewood,CO,80228,-360,Mountain Standard Time,GMT-07:00 America/Denver
4023,US,LS,39.739152,-105.192751,Golden,CO,80401,-360,Mountain Standard Time,GMT-07:00 America/Denver
4024,US,LS,39.709609,-105.085522,Lakewood,CO,80226,-360,Mountain Standard Time,GMT-07:00 America/Denver
4025,US,LS,39.708498,-105.137276,Lakewood,CO,80228,-360,Mountain Standard Time,GMT-07:00 America/Denver
4026,US,CO,39.738819,-105.196284,Golden,CO,80401,-360,Mountain Standard Time,GMT-07:00 America/Denver
4027,US,CO,39.857328,-105.164949,Arvada,CO,80007,-360,Mountain Standard Time,GMT-07:00 America/Denver
4028,US,LS,39.70807,-105.079032,Lakewood,CO,80226,-360,Mountain Standard Time,GMT-07:00 America/Denver
4029,US,CO,39.7042,-105.137999,Lakewood,CO,80228,-360,Mountain Standard Time,GMT-07:00 America/Denver
4030,US,LS,39.861416,-105.167691,Arvada,CO,80007,-360,Mountain Standard Time,GMT-07:00 America/Denver
4031,US,LS,39.7518,-105.215403,Golden,CO,80401,-360,Mountain Standard Time,GMT-07:00 America/Denver
4032,US,CO,39.754605,-105.22029,Golden,CO,80401,-360,Mountain Standard Time,GMT-07:00 America/Denver
4033,US,LS,39.698307,-105.145655,Lakewood,CO,80228,-360,Mountain Standard Time,GMT-07:00 America/Denver
4034,US,LS,39.695997,-104.84565,Aurora,CO,80012,-360,Mountain Standard Time,GMT-07:00 America/Denver
4035,US,CO,39.697228,-104.826472,Aurora,CO,80012,-360,Mountain Standard Time,GMT-07:00 America/Denver
4036,US,CO,39.711674,-104.862719,Aurora,CO,80012,-360,Mountain Standard Time,GMT-07:00 America/Denver
4037,US,CO,39.694216,-104.790464,Aurora,CO,80017,-360,Mountain Standard Time,GMT-07:00 America/Denver
4038,US,CO,39.623705,-105.019229,Littleton,CO,80123,-360,Mountain Standard Time,GMT-07:00 America/Denver
4039,US,LS,39.625099,-105.024018,Englewood,CO,80110,-360,Mountain Standard Time,GMT-07:00 America/Denver
4040,US,CO,39.612821,-105.005775,Littleton,CO,80120,-360,Mountain Standard Time,GMT-07:00 America/Denver
4041,US,CO,39.585895,-105.026176,Littleton,CO,80120,-360,Mountain Standard Time,GMT-07:00 America/Denver
4042,US,LS,39.654807,-105.051394,Denver,CO,80227,-360,Mountain Standard Time,GMT-07:00 America/Denver
4043,US,CO,39.657036,-105.05342,Denver,CO,80227,-360,Mountain Standard Time,GMT-07:00 America/Denver
4044,US,LS,39.593716,-105.072039,Littleton,CO,80128,-360,Mountain Standard Time,GMT-07:00 America/Denver
4045,US,LS,39.574548,-104.991926,Littleton,CO,80120,-360,Mountain Standard Time,GMT-07:00 America/Denver
4046,US,LS,39.572679,-104.990943,Littleton,CO,80122,-360,Mountain Standard Time,GMT-07:00 America/Denver
4047,US,CO,39.606125,-105.090453,Littleton,CO,80123,-360,Mountain Standard Time,GMT-07:00 America/Denver
4048,US,LS,39.61114,-105.101212,Littleton,CO,80123,-360,Mountain Standard Time,GMT-07:00 America/Denver
4049,US,CO,39.623352,-105.109217,Littleton,CO,80123,-360,Mountain Standard Time,GMT-07:00 America/Denver
4050,US,CO,39.553977,-105.00733,Highlands Ranch,CO,80129,-360,Mountain Standard Time,GMT-07:00 America/Denver
4051,US,LS,39.56843,-105.081657,Littleton,CO,80128,-360,Mountain Standard Time,GMT-07:00 America/Denver
4052,US,CO,39.567309,-105.080346,Littleton,CO,80128,-360,Mountain Standard Time,GMT-07:00 America/Denver
4053,US,LS,39.549863,-105.005725,Highlands Ranch,CO,80129,-360,Mountain Standard Time,GMT-07:00 America/Denver
4054,US,CO,39.682478,-105.081839,Lakewood,CO,80232,-360,Mountain Standard Time,GMT-07:00 America/Denver
4055,US,CO,39.548665,-105.035765,Highlands Ranch,CO,80129,-360,Mountain Standard Time,GMT-07:00 America/Denver
4056,US,CO,39.549086,-104.999229,Highlands Ranch,CO,80129,-360,Mountain Standard Time,GMT-07:00 America/Denver
4057,US,LS,39.548153,-104.994157,Highlands Ranch,CO,80129,-360,Mountain Standard Time,GMT-07:00 America/Denver
4058,US,LS,39.536747,-105.013543,Highlands Ranch,CO,80129,-360,Mountain Standard Time,GMT-07:00 America/Denver
4059,US,LS,40.379953,-105.099484,Loveland,CO,80537,-360,Mountain Standard Time,GMT-07:00 America/Denver
4060,US,LS,38.445642,-107.867655,Montrose,CO,81401,-360,Mountain Standard Time,GMT-07:00 America/Denver
4061,US,LS,38.452824,-107.864894,Montrose,CO,81401,-360,Mountain Standard Time,GMT-07:00 America/Denver
4062,US,CO,38.456485,-107.865494,Montrose,CO,81401,-360,Mountain Standard Time,GMT-07:00 America/Denver
4063,US,LS,37.935856,-107.847834,Telluride,CO,81435,-360,Mountain Standard Time,GMT-07:00 America/Denver
4064,US,CO,38.964943,-104.756977,Colorado Springs,CO,80920,-360,Mountain Standard Time,GMT-07:00 America/Denver
4065,US,LS,38.964627,-104.755043,Colorado Springs,CO,80920,-360,Mountain Standard Time,GMT-07:00 America/Denver
4066,US,LS,38.958845,-104.766704,Colorado Springs,CO,80920,-360,Mountain Standard Time,GMT-07:00 America/Denver
4067,US,LS,38.9546,-104.768,Colorado Springs,CO,80924,-360,Mountain Standard Time,GMT-07:00 America/Denver
4068,US,LS,38.939811,-104.760508,Colorado Springs,CO,80920,-360,Mountain Standard Time,GMT-07:00 America/Denver
4069,US,CO,38.938118,-104.760701,Colorado Springs,CO,80920,-360,Mountain Standard Time,GMT-07:00 America/Denver
4070,US,CO,38.964281,-104.795876,Colorado Springs,CO,80920,-360,Mountain Standard Time,GMT-07:00 America/Denver
4071,US,CO,38.945397,-104.79396,Colorado Springs,CO,80920,-360,Mountain Standard Time,GMT-07:00 America/Denver
4072,US,LS,38.932402,-104.7392,Colorado Springs,CO,80923,-360,Mountain Standard Time,GMT-07:00 America/Denver
4073,US,CO,38.930705,-104.793889,Colorado Springs,CO,80918,-360,Mountain Standard Time,GMT-07:00 America/Denver
4074,US,CO,38.991486,-104.808172,Colorado Springs,CO,80921,-360,Mountain Standard Time,GMT-07:00 America/Denver
4075,US,CO,38.926164,-104.716218,Colorado Springs,CO,80923,-360,Mountain Standard Time,GMT-07:00 America/Denver
4076,US,CO,38.910817,-104.715281,Colorado Springs,CO,80923,-360,Mountain Standard Time,GMT-07:00 America/Denver
4077,US,CO,38.902276,-104.768681,Colorado Springs,CO,80918,-360,Mountain Standard Time,GMT-07:00 America/Denver
4078,US,CO,38.94128,-104.674887,Colorado Springs,CO,80908,-360,Mountain Standard Time,GMT-07:00 America/Denver
4079,US,CO,38.894315,-104.751371,Colorado Springs,CO,80918,-360,Mountain Standard Time,GMT-07:00 America/Denver
4080,US,LS,38.891931,-104.760765,Colorado Springs,CO,80918,-360,Mountain Standard Time,GMT-07:00 America/Denver
4081,US,CO,38.894215,-104.717477,Colorado Springs,CO,80922,-360,Mountain Standard Time,GMT-07:00 America/Denver
4082,US,LS,38.923859,-104.844119,Colorado Springs,CO,80919,-360,Mountain Standard Time,GMT-07:00 America/Denver
4083,US,CO,38.901211,-104.818184,Colorado Springs,CO,80918,-360,Mountain Standard Time,GMT-07:00 America/Denver
4084,US,LS,38.888398,-104.718056,Colorado Springs,CO,80922,-360,Mountain Standard Time,GMT-07:00 America/Denver
4085,US,CO,39.028601,-104.828659,Colorado Springs,CO,80921,-360,Mountain Standard Time,GMT-07:00 America/Denver
4086,US,LS,38.873991,-104.722141,Colorado Springs,CO,80922,-360,Mountain Standard Time,GMT-07:00 America/Denver
4087,US,CO,38.895981,-104.849807,Colorado Springs,CO,80907,-360,Mountain Standard Time,GMT-07:00 America/Denver
4088,US,CO,38.87523,-104.826049,Colorado Springs,CO,80907,-360,Mountain Standard Time,GMT-07:00 America/Denver
4089,US,CO,38.857666,-104.72212,Colorado Springs,CO,80915,-360,Mountain Standard Time,GMT-07:00 America/Denver
4090,US,LS,38.864499,-104.81726,Colorado Springs,CO,80907,-360,Mountain Standard Time,GMT-07:00 America/Denver
4091,US,CO,39.056989,-104.840043,Monument,CO,80921,-360,Mountain Standard Time,GMT-07:00 America/Denver
4092,US,LS,38.877196,-104.848562,Colorado Springs,CO,80907,-360,Mountain Standard Time,GMT-07:00 America/Denver
4093,US,LS,39.057805,-104.84304,Colorado Springs,CO,80921,-360,Mountain Standard Time,GMT-07:00 America/Denver
4094,US,CO,38.866262,-104.682301,Colorado Springs,CO,80951,-360,Mountain Standard Time,GMT-07:00 America/Denver
4095,US,LS,38.866246,-104.680325,Colorado Springs,CO,80951,-360,Mountain Standard Time,GMT-07:00 America/Denver
4096,US,LS,38.848232,-104.772833,Colorado Springs,CO,80909,-360,Mountain Standard Time,GMT-07:00 America/Denver
4097,US,LS,38.941296,-104.60149,Falcon,CO,80831,-360,Mountain Standard Time,GMT-07:00 America/Denver
4098,US,CO,38.840446,-104.747644,Colorado Springs,CO,80915,-360,Mountain Standard Time,GMT-07:00 America/Denver
4099,US,CO,38.839012,-104.793895,Colorado Springs,CO,80909,-360,Mountain Standard Time,GMT-07:00 America/Denver
4100,US,LS,38.848729,-104.847321,Colorado Springs,CO,80904,-360,Mountain Standard Time,GMT-07:00 America/Denver
4101,US,LS,38.833634,-104.826405,Colorado Springs,CO,80903,-360,Mountain Standard Time,GMT-07:00 America/Denver
4102,US,CO,38.853691,-104.872216,Colorado Springs,CO,80904,-360,Mountain Standard Time,GMT-07:00 America/Denver
4103,US,LS,38.855096,-104.8767,Colorado Springs,CO,80904,-360,Mountain Standard Time,GMT-07:00 America/Denver
4104,US,LS,38.812707,-104.746981,Colorado Springs,CO,80916,-360,Mountain Standard Time,GMT-07:00 America/Denver
4105,US,CO,39.0964,-104.86606,Monument,CO,80132,-360,Mountain Standard Time,GMT-07:00 America/Denver
4106,US,LS,39.098709,-104.865665,Monument,CO,80132,-360,Mountain Standard Time,GMT-07:00 America/Denver
4107,US,CO,38.812962,-104.821941,Colorado Springs,CO,80905,-360,Mountain Standard Time,GMT-07:00 America/Denver
4108,US,LS,38.812564,-104.67875,Colorado Springs,CO,80914,-360,Mountain Standard Time,GMT-07:00 America/Denver
4109,US,LS,38.806033,-104.823086,Colorado Springs,CO,80905,-360,Mountain Standard Time,GMT-07:00 America/Denver
4110,US,CO,38.795326,-104.802373,Colorado Springs,CO,80906,-360,Mountain Standard Time,GMT-07:00 America/Denver
4111,US,LS,38.793161,-104.80005,Colorado Springs,CO,80906,-360,Mountain Standard Time,GMT-07:00 America/Denver
4112,US,CO,38.789773,-104.758623,Colorado Springs,CO,80916,-360,Mountain Standard Time,GMT-07:00 America/Denver
4113,US,LS,38.776183,-104.811861,Colorado Springs,CO,80906,-360,Mountain Standard Time,GMT-07:00 America/Denver
4114,US,CO,39.526858,-105.306172,Conifer,CO,80433,-360,Mountain Standard Time,GMT-07:00 America/Denver
4115,US,LS,39.527198,-105.303644,Conifer,CO,80433,-360,Mountain Standard Time,GMT-07:00 America/Denver
4116,US,LS,39.544005,-105.291719,Conifer,CO,80433,-360,Mountain Standard Time,GMT-07:00 America/Denver
4117,US,LS,39.645886,-105.339931,Evergreen,CO,80439,-360,Mountain Standard Time,GMT-07:00 America/Denver
4118,US,LS,39.57925,-105.134753,Littleton,CO,80127,-360,Mountain Standard Time,GMT-07:00 America/Denver
4119,US,LS,39.58186,-105.130665,Littleton,CO,80127,-360,Mountain Standard Time,GMT-07:00 America/Denver
4120,US,CO,39.58134,-105.127809,Littleton,CO,80127,-360,Mountain Standard Time,GMT-07:00 America/Denver
4121,US,CO,39.567158,-105.110583,Littleton,CO,80127,-360,Mountain Standard Time,GMT-07:00 America/Denver
4122,US,LS,39.693215,-105.358525,Evergreen,CO,80439,-360,Mountain Standard Time,GMT-07:00 America/Denver
4123,US,CO,39.699112,-105.329276,Evergreen,CO,80439,-360,Mountain Standard Time,GMT-07:00 America/Denver
4124,US,LS,39.484778,-105.073843,Littleton,CO,80125,-360,Mountain Standard Time,GMT-07:00 America/Denver
4125,US,LS,39.681164,-105.122437,Lakewood,CO,80232,-360,Mountain Standard Time,GMT-07:00 America/Denver
4126,US,LS,39.690352,-105.119439,Lakewood,CO,80232,-360,Mountain Standard Time,GMT-07:00 America/Denver
4127,US,CO,39.690887,-105.117171,Lakewood,CO,80232,-360,Mountain Standard Time,GMT-07:00 America/Denver
4128,US,LS,39.749487,-105.223789,Golden,CO,80401,-360,Mountain Standard Time,GMT-07:00 America/Denver
4129,US,CO,39.76731,-105.234355,Golden,CO,80403,-360,Mountain Standard Time,GMT-07:00 America/Denver
4130,US,CO,39.526082,-104.942159,Highlands Ranch,CO,80126,-360,Mountain Standard Time,GMT-07:00 America/Denver
4131,US,LS,39.525477,-104.940283,Highlands Ranch,CO,80126,-360,Mountain Standard Time,GMT-07:00 America/Denver
4132,US,LS,39.88529,-105.762474,Winter Park,CO,80482,-360,Mountain Standard Time,GMT-07:00 America/Denver
4133,US,LS,39.945344,-105.811083,Fraser,CO,80442,-360,Mountain Standard Time,GMT-07:00 America/Denver
4134,US,LS,39.76461,-105.60023,Dumont,CO,80436,-360,Mountain Standard Time,GMT-07:00 America/Denver
4135,US,LS,40.062891,-105.929164,Granby,CO,80446,-360,Mountain Standard Time,GMT-07:00 America/Denver
4136,US,CO,39.742079,-105.497598,Idaho Springs,CO,80452,-360,Mountain Standard Time,GMT-07:00 America/Denver
4137,US,LS,39.800322,-105.490075,Black Hawk,CO,80422,-360,Mountain Standard Time,GMT-07:00 America/Denver
4138,US,LS,39.79828,-105.482777,Black Hawk,CO,80422,-360,Mountain Standard Time,GMT-07:00 America/Denver
4139,US,CO,39.414375,-104.863926,Castle Rock,CO,80108,-360,Mountain Standard Time,GMT-07:00 America/Denver
4140,US,CO,39.41279,-104.873506,Castle Rock,CO,80108,-360,Mountain Standard Time,GMT-07:00 America/Denver
4141,US,LS,39.407711,-104.85598,Castle Rock,CO,80108,-360,Mountain Standard Time,GMT-07:00 America/Denver
4142,US,LS,39.415198,-104.87953,Castle Rock,CO,80108,-360,Mountain Standard Time,GMT-07:00 America/Denver
4143,US,CO,39.423908,-104.879847,Castle Rock,CO,80108,-360,Mountain Standard Time,GMT-07:00 America/Denver
4144,US,CO,39.380044,-104.862776,Castle Rock,CO,80109,-360,Mountain Standard Time,GMT-07:00 America/Denver
4145,US,LS,39.375882,-104.827327,Castle Rock,CO,80104,-360,Mountain Standard Time,GMT-07:00 America/Denver
4146,US,LS,39.362218,-104.860708,Castle Rock,CO,80104,-360,Mountain Standard Time,GMT-07:00 America/Denver
4147,US,LS,39.468564,-104.879455,Castle Rocks,CO,80108,-360,Mountain Standard Time,GMT-07:00 America/Denver
4148,US,CO,39.471811,-104.876571,Castle Rock,CO,80108,-360,Mountain Standard Time,GMT-07:00 America/Denver
4149,US,LS,39.479767,-104.76025,Parker,CO,80134,-360,Mountain Standard Time,GMT-07:00 America/Denver
4150,US,LS,40.574146,-105.116668,Fort Collins,CO,80521,-360,Mountain Standard Time,GMT-07:00 America/Denver
4151,US,LS,40.554306,-105.116465,Fort Collins,CO,80526,-360,Mountain Standard Time,GMT-07:00 America/Denver
4152,US,CO,40.552992,-105.092082,Fort Collins,CO,80526,-360,Mountain Standard Time,GMT-07:00 America/Denver
4153,US,CO,40.564462,-105.076388,Fort Collins,CO,80525,-360,Mountain Standard Time,GMT-07:00 America/Denver
4154,US,CO,40.588679,-105.076717,Fort Collins,CO,80524,-360,Mountain Standard Time,GMT-07:00 America/Denver
4155,US,LS,40.577251,-105.059461,Fort Collins,CO,80524,-360,Mountain Standard Time,GMT-07:00 America/Denver
4156,US,CO,40.537688,-105.078762,Fort Collins,CO,80525,-360,Mountain Standard Time,GMT-07:00 America/Denver
4157,US,CO,40.611866,-105.075639,Fort Collins,CO,80524,-360,Mountain Standard Time,GMT-07:00 America/Denver
4158,US,LS,40.611837,-105.073671,Fort Collins,CO,80524,-360,Mountain Standard Time,GMT-07:00 America/Denver
4159,US,CO,40.55055,-105.058559,Fort Collins,CO,80525,-360,Mountain Standard Time,GMT-07:00 America/Denver
4160,US,CO,40.528951,-105.076393,Ft. Collins,CO,80525,-360,Mountain Standard Time,GMT-07:00 America/Denver
4161,US,LS,40.527219,-105.078846,Fort Collins,CO,80525,-360,Mountain Standard Time,GMT-07:00 America/Denver
4162,US,LS,40.525064,-105.073203,Fort Collins,CO,80525,-360,Mountain Standard Time,GMT-07:00 America/Denver
4163,US,CO,40.523907,-105.073725,Fort Collins,CO,80525,-360,Mountain Standard Time,GMT-07:00 America/Denver
4164,US,LS,40.552071,-105.038337,Fort Collins,CO,80525,-360,Mountain Standard Time,GMT-07:00 America/Denver
4165,US,LS,40.524654,-105.051809,Fort Collins,CO,80525,-360,Mountain Standard Time,GMT-07:00 America/Denver
4166,US,CO,40.522677,-105.042165,Fort Collins,CO,80528,-360,Mountain Standard Time,GMT-07:00 America/Denver
4167,US,CO,40.523712,-104.989384,Timnath,CO,80547,-360,Mountain Standard Time,GMT-07:00 America/Denver
4168,US,CO,40.424982,-105.07809,Loveland,CO,80538,-360,Mountain Standard Time,GMT-07:00 America/Denver
4169,US,LS,40.424931,-105.07557,Loveland,CO,80538,-360,Mountain Standard Time,GMT-07:00 America/Denver
4170,US,LS,40.408503,-105.109586,Loveland,CO,80537,-360,Mountain Standard Time,GMT-07:00 America/Denver
4171,US,CO,40.407063,-105.098816,Loveland,CO,80537,-360,Mountain Standard Time,GMT-07:00 America/Denver
4172,US,CO,40.479715,-104.929391,Windsor,CO,80550,-360,Mountain Standard Time,GMT-07:00 America/Denver
4173,US,LS,40.481141,-104.92773,Windsor,CO,80550,-360,Mountain Standard Time,GMT-07:00 America/Denver
4174,US,LS,40.478175,-104.927811,Windsor,CO,80550,-360,Mountain Standard Time,GMT-07:00 America/Denver
4175,US,LS,40.409488,-105.003419,Loveland,CO,80538,-360,Mountain Standard Time,GMT-07:00 America/Denver
4176,US,CO,40.407766,-105.006747,Loveland,CO,80538,-360,Mountain Standard Time,GMT-07:00 America/Denver
4177,US,CO,40.406659,-104.981433,Johnstown,CO,80534,-360,Mountain Standard Time,GMT-07:00 America/Denver
4178,US,LS,40.419619,-104.792555,Greeley,CO,80634,-360,Mountain Standard Time,GMT-07:00 America/Denver
4179,US,CO,40.422154,-104.750162,Greeley,CO,80634,-360,Mountain Standard Time,GMT-07:00 America/Denver
4180,US,LS,40.421425,-104.736048,Greeley,CO,80634,-360,Mountain Standard Time,GMT-07:00 America/Denver
4181,US,CO,40.395751,-104.754886,Greeley,CO,80634,-360,Mountain Standard Time,GMT-07:00 America/Denver
4182,US,LS,40.395082,-104.753833,Greeley,CO,80634,-360,Mountain Standard Time,GMT-07:00 America/Denver
4183,US,LS,40.393705,-104.75008,Greeley,CO,80634,-360,Mountain Standard Time,GMT-07:00 America/Denver
4184,US,LS,40.404986,-104.73324,Greeley,CO,80634,-360,Mountain Standard Time,GMT-07:00 America/Denver
4185,US,CO,40.379496,-105.515401,Estes Park,CO,80517,-360,Mountain Standard Time,GMT-07:00 America/Denver
4186,US,LS,40.380244,-105.516483,Estes Park,CO,80517,-360,Mountain Standard Time,GMT-07:00 America/Denver
4187,US,CO,40.394533,-104.696509,Greeley,CO,80631,-360,Mountain Standard Time,GMT-07:00 America/Denver
4188,US,LS,39.096744,-108.607197,Grand Junction,CO,81505,-360,Mountain Standard Time,GMT-07:00 America/Denver
4189,US,CO,39.095797,-108.608725,Grand Junction,CO,81505,-360,Mountain Standard Time,GMT-07:00 America/Denver
4190,US,LS,39.093622,-108.601926,Grand Junction,CO,81505,-360,Mountain Standard Time,GMT-07:00 America/Denver
4191,US,CO,39.083566,-108.587873,Grand Junction,CO,81505,-360,Mountain Standard Time,GMT-07:00 America/Denver
4192,US,LS,39.065107,-108.596556,Grand Junction,CO,81507,-360,Mountain Standard Time,GMT-07:00 America/Denver
4193,US,LS,39.078722,-108.555627,Grand Junction,CO,81501,-360,Mountain Standard Time,GMT-07:00 America/Denver
4194,US,LS,39.103965,-108.551074,Grand Junction,CO,81506,-360,Mountain Standard Time,GMT-07:00 America/Denver
4195,US,LS,39.090572,-108.550698,Grand Junction,CO,81501,-360,Mountain Standard Time,GMT-07:00 America/Denver
4196,US,CO,39.077734,-108.549769,Grand Junction,CO,81501,-360,Mountain Standard Time,GMT-07:00 America/Denver
4197,US,LS,39.090811,-108.513701,Grand Junction,CO,81504,-360,Mountain Standard Time,GMT-07:00 America/Denver
4198,US,LS,39.040005,-108.539275,Grand Junction,CO,81503,-360,Mountain Standard Time,GMT-07:00 America/Denver
4199,US,LS,39.087379,-108.461374,Grand Junction,CO,81504,-360,Mountain Standard Time,GMT-07:00 America/Denver
4200,US,CO,39.087183,-108.460009,Clifton,CO,81520,-360,Mountain Standard Time,GMT-07:00 America/Denver
4201,US,CO,39.152916,-108.738765,Fruita,CO,81521,-360,Mountain Standard Time,GMT-07:00 America/Denver
4202,US,CO,39.523032,-107.769747,Rifle,CO,81650,-360,Mountain Standard Time,GMT-07:00 America/Denver
4203,US,LS,38.3142,-104.7292,Pueblo West,CO,81007,-360,Mountain Standard Time,GMT-07:00 America/Denver
4204,US,CO,38.309597,-104.627228,Pueblo,CO,81008,-360,Mountain Standard Time,GMT-07:00 America/Denver
4205,US,CO,38.320265,-104.61844,Pueblo,CO,81008,-360,Mountain Standard Time,GMT-07:00 America/Denver
4206,US,CO,38.266071,-104.627494,Pueblo,CO,81004,-360,Mountain Standard Time,GMT-07:00 America/Denver
4207,US,CO,38.234949,-104.664672,Pueblo,CO,81005,-360,Mountain Standard Time,GMT-07:00 America/Denver
4208,US,LS,38.243007,-104.645371,Pueblo,CO,81005,-360,Mountain Standard Time,GMT-07:00 America/Denver
4209,US,LS,38.302873,-104.606078,Pueblo,CO,81008,-360,Mountain Standard Time,GMT-07:00 America/Denver
4210,US,LS,38.716533,-104.699289,Fountain,CO,80817,-360,Mountain Standard Time,GMT-07:00 America/Denver
4211,US,CO,38.71826,-104.699498,Fountain,CO,80817,-360,Mountain Standard Time,GMT-07:00 America/Denver
4212,US,LS,38.720371,-104.796491,Fort Carson,CO,80913,-360,Mountain Standard Time,GMT-07:00 America/Denver
4213,US,LS,38.74036,-104.797585,Fort Carson,CO,80913,-360,Mountain Standard Time,GMT-07:00 America/Denver
4214,US,CO,38.767259,-104.784308,Colorado Springs,CO,80906,-360,Mountain Standard Time,GMT-07:00 America/Denver
4215,US,LS,38.767375,-104.814965,Colorado Springs,CO,80906,-360,Mountain Standard Time,GMT-07:00 America/Denver
4216,US,CO,38.775565,-104.813619,Colorado Springs,CO,80906,-360,Mountain Standard Time,GMT-07:00 America/Denver
4217,US,CO,38.973729,-105.03988,Woodland Park,CO,80866,-360,Mountain Standard Time,GMT-07:00 America/Denver
4218,US,LS,38.98269,-105.046628,Woodland Park,CO,80863,-360,Mountain Standard Time,GMT-07:00 America/Denver
4219,US,LS,37.274647,-107.882252,Durango,CO,81301,-360,Mountain Standard Time,GMT-07:00 America/Denver
4220,US,CO,37.295291,-107.87341,Durango,CO,81301,-360,Mountain Standard Time,GMT-07:00 America/Denver
4221,US,LS,37.299919,-107.870556,Durango,CO,81301,-360,Mountain Standard Time,GMT-07:00 America/Denver
4222,US,LS,37.34934,-108.577474,Cortez,CO,81321,-360,Mountain Standard Time,GMT-07:00 America/Denver
4223,US,LS,37.25691,-107.076281,Pagosa Springs,CO,81147,-360,Mountain Standard Time,GMT-07:00 America/Denver
4224,US,LS,37.469587,-105.876505,Alamosa,CO,81101,-360,Mountain Standard Time,GMT-07:00 America/Denver
4225,US,CO,37.467952,-105.876548,Alamosa,CO,81101,-360,Mountain Standard Time,GMT-07:00 America/Denver
4226,US,LS,39.360159,-104.609649,Elizabeth,CO,80107,-360,Mountain Standard Time,GMT-07:00 America/Denver
4227,US,LS,39.743062,-104.435556,Bennett,CO,80102,-360,Mountain Standard Time,GMT-07:00 America/Denver
4228,US,LS,37.271715,-107.885195,Durango,CO,81301,-360,Mountain Standard Time,GMT-07:00 America/Denver
4229,US,LS,39.542402,-107.782642,Rifle,CO,81650,-360,Mountain Standard Time,GMT-07:00 America/Denver
4230,US,LS,40.465969,-106.824493,Steamboat Springs,CO,80488,-360,Mountain Standard Time,GMT-07:00 America/Denver
4231,US,CO,40.467342,-106.825406,Steamboat Springs,CO,80487,-360,Mountain Standard Time,GMT-07:00 America/Denver
4232,US,LS,40.462831,-106.821678,Steamboat Springs,CO,80477,-360,Mountain Standard Time,GMT-07:00 America/Denver
4233,US,LS,40.514914,-107.553786,Craig,CO,81625,-360,Mountain Standard Time,GMT-07:00 America/Denver
